OBJECT_NAME,OBJECT_ID,EPOCH,MEAN_MOTION,ECCENTRICITY,INCLINATION,RA_OF_ASC_NODE,ARG_OF_PERICENTER,MEAN_ANOMALY,EPHEMERIS_TYPE,CLASSIFICATION_TYPE,NORAD_CAT_ID,ELEMENT_SET_NO,REV_AT_EPOCH,BSTAR,MEAN_MOTION_DOT,MEAN_MOTION_DDOT
STARLINK-30164,2023-113F,2026-07-15T18:30:48.675744,15.27570498,.00016617,43.0031,12.7311,273.7382,86.3279,0,U,57500,999,16326,.38108957E-4,.786E-5,0
STARLINK-30072,2023-113G,2026-07-16T04:27:12.866112,15.27528791,.0001014,43.0038,10.6653,255.2387,104.8352,0,U,57501,999,16321,.35807E-3,.9589E-4,0
STARLINK-30230,2023-113J,2026-07-15T12:10:27.708096,15.27586576,.0001465,43.0032,14.1702,274.2914,85.7770,0,U,57503,999,16311,.54294637E-4,.1232E-4,0
STARLINK-30213,2023-113K,2026-07-15T19:13:21.646272,15.27574098,.00013081,43.0045,12.9383,273.1761,86.8941,0,U,57504,999,16326,.28993951E-4,.536E-5,0
STARLINK-30227,2023-113L,2026-07-16T03:23:27.807648,15.27823740,.0013564,42.9944,1.6080,287.5789,72.3581,0,U,57505,999,16342,.6385E-3,.17523E-3,0
STARLINK-30212,2023-113M,2026-07-15T19:17:52.713312,15.27809063,.0002235,43.0067,12.9698,305.0236,55.0406,0,U,57506,999,16310,.13572E-3,.35E-4,0
STARLINK-30219,2023-113N,2026-07-15T18:13:33.616704,15.32171204,.00041065,43.0012,10.9029,276.7532,83.2854,0,U,57507,999,16328,.5680316E-3,.17788E-3,0
STARLINK-30074,2023-113P,2026-07-16T04:12:24.048576,15.27584139,.0001561,43.0031,10.5962,264.7660,95.3014,0,U,57508,999,16311,-.14056E-4,-.649E-5,0
STARLINK-30082,2023-113Q,2026-07-15T12:01:13.624032,15.27580975,.00023603,43.0031,14.1426,281.0582,79.0004,0,U,57509,999,16322,.47530256E-4,.1046E-4,0
STARLINK-30153,2023-113R,2026-07-15T11:35:19.474656,15.27583941,.00016166,43.0062,14.0225,268.0877,91.9790,0,U,57510,999,16311,.74990016E-4,.1802E-4,0
STARLINK-30147,2023-113S,2026-07-15T21:15:05.116032,15.27522721,.0001898,43.0073,11.8720,275.4291,84.6345,0,U,57511,999,16328,.47566E-3,.12827E-3,0
STARLINK-30157,2023-113T,2026-07-15T16:46:20.448192,15.27588655,.00016283,43.0045,347.3501,274.0617,86.0048,0,U,57512,999,16355,.1478065E-3,.3808E-4,0
STARLINK-30168,2023-113U,2026-07-15T21:09:30.583008,15.27574262,.0001481,43.0043,11.8158,275.4820,84.5863,0,U,57513,999,16312,.47886E-4,.1055E-4,0
STARLINK-30231,2023-113V,2026-07-15T21:31:43.163904,15.27576009,.0001393,43.0023,11.9453,263.7538,96.3155,0,U,57514,999,16328,.27482E-4,.494E-5,0
STARLINK-30081,2023-113W,2026-07-15T22:38:07.236384,15.27578725,.0001253,43.0045,11.4550,287.4784,72.5931,0,U,57515,999,16329,.43616E-4,.938E-5,0
STARLINK-30149,2023-113X,2026-07-15T21:24:18.826848,15.27580022,.0001746,43.0041,11.9203,271.5941,88.4710,0,U,57516,999,16318,.21405E-4,.327E-5,0
COSMOS 2569 [GLONASS-K2],2023-114A,2026-07-15T21:04:36.390144,2.13103741,.0009655,65.3185,71.6532,295.9092,64.0686,0,U,57517,999,2287,0,-.13E-6,0
HJ-2F,2023-116A,2026-07-16T04:05:18.191616,15.22702121,.0006528,97.3847,201.8925,308.5757,51.4894,0,U,57519,999,16316,.16711E-3,.3827E-4,0
STARLINK-30259,2023-115A,2026-07-15T17:38:03.513696,15.27569274,.00004387,43.0002,358.5110,192.5385,167.5456,0,U,57521,999,16315,.98539013E-4,.245E-4,0
STARLINK-30256,2023-115B,2026-07-15T18:09:31.066848,15.27567026,.0001306,43.0038,358.6683,261.9702,98.1001,0,U,57522,999,16193,.48643516E-4,.1076E-4,0
STARLINK-30261,2023-115C,2026-07-15T21:06:43.931232,15.27576393,.0001306,43.0029,357.8717,275.3628,84.7075,0,U,57523,999,16195,-.16771E-4,-.724E-5,0
STARLINK-30260,2023-115D,2026-07-15T17:32:30.727680,15.27576124,.00015038,43.0043,358.5004,262.8689,97.1991,0,U,57524,999,16193,.40889858E-4,.863E-5,0
STARLINK-30253,2023-115E,2026-07-15T19:23:19.076352,15.27575706,.00010405,43.0010,358.1975,247.7240,112.3502,0,U,57525,999,16194,.32762923E-4,.64E-5,0
STARLINK-30257,2023-115F,2026-07-16T03:08:33.776736,15.27574748,.0000775,43.0006,356.3490,279.7278,80.3486,0,U,57526,999,16199,.12401E-4,.79E-6,0
STARLINK-30250,2023-115G,2026-07-15T21:03:01.783872,15.27574257,.0000673,43.0009,357.8525,282.8236,77.2541,0,U,57527,999,16285,.1056E-4,.29E-6,0
STARLINK-30269,2023-115H,2026-07-15T12:03:59.945760,15.27574957,.00009648,43.0028,0.2264,255.4418,104.6327,0,U,57528,999,16189,.22077697E-4,.346E-5,0
STARLINK-30266,2023-115J,2026-07-15T20:20:28.561056,15.27575467,.0001544,43.0031,357.6413,263.1088,96.9588,0,U,57529,999,16195,-.3895E-4,-.1334E-4,0
STARLINK-30270,2023-115K,2026-07-15T12:18:35.322048,15.27592970,.00011622,42.9992,359.4366,212.6540,147.4240,0,U,57530,999,16190,.61585765E-3,.1673E-3,0
STARLINK-30268,2023-115L,2026-07-15T10:24:16.912512,15.27575315,.00016871,43.0039,0.5543,230.7237,129.3466,0,U,57531,999,16188,.60557302E-4,.1404E-4,0
STARLINK-30251,2023-115M,2026-07-16T04:05:42.304128,15.27574029,.0001392,43.0054,355.7690,260.9102,99.1593,0,U,57532,999,16200,.29081E-4,.538E-5,0
